TDRS 3                  
1 19548U 88091B   26057.84610155 -.00000306  00000+0  00000+0 0  9991
2 19548  12.6852 341.7287 0044225 351.9002  78.3575  1.00261626124288
HST                     
1 20580U 90037B   26062.41753730  .00009009  00000+0  29940-3 0  9994
2 20580  28.4702  82.7831 0001695  63.3001 296.7768 15.29363841772354
TDRS 5                  
1 21639U 91054B   26062.73004737  .00000076  00000+0  00000+0 0  9998
2 21639  14.0842 354.5584 0010909 277.5233 344.7078  1.00266106126659
TDRS 6                  
1 22314U 93003B   26062.30205249 -.00000304  00000+0  00000+0 0  9994
2 22314  14.1806 357.8429 0005585 201.1788  24.7869  1.00279152121346
TDRS 7                  
1 23613U 95035B   26062.72117701 -.00000247  00000+0  00000+0 0  9991
2 23613  13.4207 348.9131 0008159  47.3286 113.8671  1.00276681112198
ISS (ZARYA)             
1 25544U 98067A   26062.76956237  .00010027  00000+0  19358-3 0  9999
2 25544  51.6317 101.6250 0008204 153.6152 206.5256 15.48425902555413
TERRA                   
1 25994U 99068A   26062.75824642  .00000583  00000+0  12797-3 0  9999
2 25994  97.9606 116.4193 0002299 165.9720 262.2336 14.61007359394214
TDRS 8                  
1 26388U 00034A   26062.58004911 -.00000204  00000+0  00000+0 0  9993
2 26388  12.5175  32.2023 0006149 307.5076 115.1963  1.00276661 94121
TIMED                   
1 26998U 01055B   26062.48955191  .00001682  00000+0  15738-3 0  9996
2 26998  74.0660  87.7998 0002960 282.5183  77.5670 14.94999138315023
AQUA                    
1 27424U 02022A   26062.86112389  .00001431  00000+0  29557-3 0  9998
2 27424  98.4164  30.1204 0000651  58.3918 331.5840 14.61960134267889
SORCE                   
1 27651U 03004A   26062.65290785  .00004692  00000+0  35208-3 0  9997
2 27651  39.9905 143.5088 0016677   9.7243 350.3871 15.03042744256010
AURA                    
1 28376U 04026A   26062.80771767  .00001384  00000+0  29121-3 0  9990
2 28376  98.3301  18.4728 0001021  78.2308 281.9007 14.61132287150822
SWIFT                   
1 28485U 04047A   26062.78638314  .00052726  00000+0  64300-3 0  9995
2 28485  20.5532 272.1083 0003130 317.0945  42.9255 15.58696064170347
THEMIS A                
1 30580U 07004A   26061.85469462 -.00000157  00000+0 -51588-2 0  9999
2 30580   6.7094 120.4987 8406320 176.9230 199.0492  0.87846918 40342
THEMIS D                
1 30797U 07004D   26062.80365520 -.00000221  00000+0  00000+0 0  9996
2 30797   6.5948  84.7614 8358881 215.5864 126.5023  0.87835941 40156
THEMIS E                
1 30798U 07004E   26062.66975449 -.00000221  00000+0  00000+0 0  9998
2 30798   4.1121  99.9525 8362885 201.3265  98.5411  0.87837692 64992
FGRST (GLAST)           
1 33053U 08029A   26062.72201032  .00005181  00000+0  19841-3 0  9996
2 33053  25.5812 216.4397 0008499 158.2380 201.8520 15.23274978979739
